STARLINK-30524          
1 57965U 23151B   26068.16426896  .00007138  00000+0  27520-3 0  9995
2 57965  43.0000 339.1883 0001045 274.6135  85.4596 15.26777620135687
BANDWAGON-2 OBJECT D    
1 62380U 24247D   26068.52261193  .00011259  00000+0  40119-3 0  9994
2 62380  44.9954 115.6710 0003488 351.1453   8.9368 15.29076102 67732
