[{"OBJECT_NAME":"STARLINK-30524","OBJECT_ID":"2023-151B","EPOCH":"2026-03-09T03:56:32.838144","MEAN_MOTION":15.2677762,"ECCENTRICITY":0.00010457,"INCLINATION":43,"RA_OF_ASC_NODE":339.1883,"ARG_OF_PERICENTER":274.6135,"MEAN_ANOMALY":85.4596,"EPHEMERIS_TYPE":0,"CLASSIFICATION_TYPE":"U","NORAD_CAT_ID":57965,"ELEMENT_SET_NO":999,"REV_AT_EPOCH":13568,"BSTAR":0.00027520135,"MEAN_MOTION_DOT":7.138e-5,"MEAN_MOTION_DDOT":0},{"OBJECT_NAME":"BANDWAGON-2 OBJECT D","OBJECT_ID":"2024-247D","EPOCH":"2026-03-09T12:32:33.670752","MEAN_MOTION":15.29076102,"ECCENTRICITY":0.00034883,"INCLINATION":44.9954,"RA_OF_ASC_NODE":115.671,"ARG_OF_PERICENTER":351.1453,"MEAN_ANOMALY":8.9368,"EPHEMERIS_TYPE":0,"CLASSIFICATION_TYPE":"U","NORAD_CAT_ID":62380,"ELEMENT_SET_NO":999,"REV_AT_EPOCH":6773,"BSTAR":0.00040119131,"MEAN_MOTION_DOT":0.00011259,"MEAN_MOTION_DDOT":0}]
